STARLINK-31511          
1 59462U 24068H   26068.31561203 -.00000402  00000+0 -50759-5 0  9997
2 59462  43.0023  36.7900 0001374 254.7480 105.3220 15.27576819108463
PHISAT 2                
1 60470U 24149C   26068.78834181  .00008925  00000+0  31421-3 0  9996
2 60470  97.3806 148.6498 0001175 168.6230 191.5037 15.29548631 86792
